NORAD_CAT_ID,OBJECT_NAME,OBJECT_TYPE,EPOCH,MEAN_MOTION,ECCENTRICITY,INCLINATION,RA_OF_ASC_NODE,ARG_OF_PERICENTER,MEAN_ANOMALY,BSTAR,MEAN_MOTION_DOT,MEAN_MOTION_DDOT,TLE_LINE0,TLE_LINE1,TLE_LINE2,SEMIMAJOR_AXIS,PERIOD,APOGEE,PERIGEE,DECAYED
53896.0,STARLINK-5037,PAYLOAD,2024-03-09 20:02:32,15.08844683,0.0001875,53.2185,0.4032,82.0999,278.0206,0.00021669,3.163e-05,0.0,0 STARLINK-5037,1 53896U 22119L   24069.83509559  .00003163  00000-0  21669-3 0  9991,2 53896  53.2185   0.4032 0001875  82.0999 278.0206 15.08844683 81083,6917.866,95.437,541.028,538.434,0.0
53896.0,STARLINK-5037,PAYLOAD,2024-03-10 11:56:23,15.08836178,0.0001413,53.2179,357.4264,76.3232,283.7918,2.2569e-05,7.1e-07,0.0,0 STARLINK-5037,1 53896U 22119L   24070.49749915  .00000071  00000-0  22569-4 0  9993,2 53896  53.2179 357.4264 0001413  76.3232 283.7918 15.08836178 81186,6917.892,95.438,540.735,538.78,0.0
53896.0,STARLINK-5037,PAYLOAD,2024-03-11 11:47:11,15.0884071,0.0001634,53.2188,352.9685,83.8621,276.2557,0.00036432,5.515e-05,0.0,0 STARLINK-5037,1 53896U 22119L   24071.49110449  .00005515  00000-0  36432-3 0  9999,2 53896  53.2188 352.9685 0001634  83.8621 276.2557 15.08840710 81759,6917.878,95.438,540.874,538.613,0.0
53896.0,STARLINK-5037,PAYLOAD,2024-03-12 03:41:02,15.08843481,0.0001673,53.2191,349.9931,82.766,277.3522,0.00031862,4.787e-05,0.0,0 STARLINK-5037,1 53896U 22119L   24072.15350433  .00004787  00000-0  31862-3 0  9994,2 53896  53.2191 349.9931 0001673  82.7660 277.3522 15.08843481 81434,6917.87,95.437,540.892,538.577,0.0
53896.0,STARLINK-5037,PAYLOAD,2024-03-12 11:37:58,15.0884264,0.0001387,53.218,348.5091,88.078,272.0371,0.00023561,3.464e-05,0.0,0 STARLINK-5037,1 53896U 22119L   24072.48470398  .00003464  00000-0  23561-3 0  9991,2 53896  53.2180 348.5091 0001387  88.0780 272.0371 15.08842640 81900,6917.872,95.437,540.697,538.778,0.0
53896.0,STARLINK-5037,PAYLOAD,2024-03-13 01:56:26,15.088415,0.0001396,53.2183,345.8335,91.3899,268.7253,0.00014171,1.968e-05,0.0,0 STARLINK-5037,1 53896U 22119L   24073.08086465  .00001968  00000-0  14171-3 0  9990,2 53896  53.2183 345.8335 0001396  91.3899 268.7253 15.08841500 81570,6917.876,95.437,540.707,538.775,0.0
53896.0,STARLINK-5037,PAYLOAD,2024-03-13 14:39:31,15.08841142,0.0001132,53.2173,343.4519,102.1069,258.005,0.00012764,1.744e-05,0.0,0 STARLINK-5037,1 53896U 22119L   24073.61078412  .00001744  00000-0  12764-3 0  9990,2 53896  53.2173 343.4519 0001132 102.1069 258.0050 15.08841142 82070,6917.877,95.437,540.525,538.959,0.0
53896.0,STARLINK-5037,PAYLOAD,2024-03-13 22:36:27,15.08846038,0.0001371,53.2174,341.9664,90.4437,269.6713,0.00017116,2.438e-05,0.0,0 STARLINK-5037,1 53896U 22119L   24073.94198328  .00002438  00000-0  17116-3 0  9992,2 53896  53.2174 341.9664 0001371  90.4437 269.6713 15.08846038 82127,6917.862,95.437,540.675,538.778,0.0
53896.0,STARLINK-5037,PAYLOAD,2024-03-14 00:11:50,15.08848531,0.0001338,53.2168,341.669,100.8291,259.2852,0.00017251,2.459e-05,0.0,0 STARLINK-5037,1 53896U 22119L   24074.00822148  .00002459  00000-0  17251-3 0  9997,2 53896  53.2168 341.6690 0001338 100.8291 259.2852 15.08848531 82133,6917.854,95.437,540.645,538.794,0.0
53896.0,STARLINK-5037,PAYLOAD,2024-03-14 20:51:51,15.08843176,0.0001446,53.2161,337.8032,91.2363,268.8795,0.00014137,1.963e-05,0.0,0 STARLINK-5037,1 53896U 22119L   24074.86934406  .00001963  00000-0  14137-3 0  9991,2 53896  53.2161 337.8032 0001446  91.2363 268.8795 15.08843176 81845,6917.871,95.437,540.736,538.735,0.0
53896.0,STARLINK-5037,PAYLOAD,2024-03-14 22:27:14,15.08842214,0.0001391,53.2164,337.5056,93.2479,266.8672,0.00011887,1.604e-05,0.0,0 STARLINK-5037,1 53896U 22119L   24074.93558415  .00001604  00000-0  11887-3 0  9992,2 53896  53.2164 337.5056 0001391  93.2479 266.8672 15.08842214 82272,6917.874,95.437,540.701,538.776,0.0
53896.0,STARLINK-5037,PAYLOAD,2024-03-15 03:13:24,15.08825345,0.0001647,53.217,336.6123,104.3238,255.7937,0.00078984,0.000123,0.0,0 STARLINK-5037,1 53896U 22119L   24075.13431183  .00012300  00000-0  78984-3 0  9993,2 53896  53.2170 336.6123 0001647 104.3238 255.7937 15.08825345 81888,6917.925,95.438,540.93,538.651,0.0
53896.0,STARLINK-5037,PAYLOAD,2024-03-15 22:18:01,15.08831555,0.0001373,53.218,333.0407,105.8165,254.2979,2.4372e-05,1e-06,0.0,0 STARLINK-5037,1 53896U 22119L   24075.92918957  .00000100  00000-0  24372-4 0  9997,2 53896  53.2180 333.0407 0001373 105.8165 254.2979 15.08831555 82427,6917.906,95.438,540.721,538.821,0.0
53896.0,STARLINK-5037,PAYLOAD,2024-03-15 23:53:25,15.08831401,0.0001704,53.2177,332.7429,124.0126,236.1028,1.5545e-05,-4.1e-07,0.0,0 STARLINK-5037,1 53896U 22119L   24075.99543166 -.00000041  00000-0  15545-4 0  9997,2 53896  53.2177 332.7429 0001704 124.0126 236.1028 15.08831401 82010,6917.907,95.438,540.95,538.593,0.0
53896.0,STARLINK-5037,PAYLOAD,2024-03-16 20:33:25,15.08842397,0.0001086,53.2171,328.8815,101.9747,258.1367,1.8938e-05,1.4e-07,0.0,0 STARLINK-5037,1 53896U 22119L   24076.85654767  .00000014  00000-0  18938-4 0  9991,2 53896  53.2171 328.8815 0001086 101.9747 258.1367 15.08842397 82145,6917.873,95.437,540.489,538.987,0.0
53896.0,STARLINK-5037,PAYLOAD,2024-03-16 22:08:48,15.08842581,0.0001236,53.2176,328.5856,100.9141,259.199,5.7543e-05,6.28e-06,0.0,0 STARLINK-5037,1 53896U 22119L   24076.92278696  .00000628  00000-0  57543-4 0  9998,2 53896  53.2176 328.5856 0001236 100.9141 259.1990 15.08842581 82571,6917.872,95.437,540.593,538.882,0.0
53896.0,STARLINK-5037,PAYLOAD,2024-03-17 02:54:57,15.08848404,0.0001438,53.2179,327.6914,116.8672,243.2467,0.00010066,1.315e-05,0.0,0 STARLINK-5037,1 53896U 22119L   24077.12150161  .00001315  00000-0  10066-3 0  9999,2 53896  53.2179 327.6914 0001438 116.8672 243.2467 15.08848404 82188,6917.855,95.437,540.714,538.725,0.0
53896.0,STARLINK-5037,PAYLOAD,2024-03-17 20:24:12,15.08837682,0.000127,53.2177,324.4164,104.7552,255.3581,0.00015685,2.209e-05,0.0,0 STARLINK-5037,1 53896U 22119L   24077.85014945  .00002209  00000-0  15685-3 0  9993,2 53896  53.2177 324.4164 0001270 104.7552 255.3581 15.08837682 82294,6917.887,95.438,540.631,538.874,0.0
53896.0,STARLINK-5037,PAYLOAD,2024-03-17 21:59:36,15.08840755,0.0001363,53.2183,324.1254,37.5309,322.5778,0.00015074,2.112e-05,0.0,0 STARLINK-5037,1 53896U 22119L   24077.91638937  .00002112  00000-0  15074-3 0  9998,2 53896  53.2183 324.1254 0001363  37.5309 322.5778 15.08840755 82722,6917.878,95.438,540.686,538.8,0.0
53896.0,STARLINK-5037,PAYLOAD,2024-03-18 01:10:19,15.08882522,0.0001202,53.2183,323.5305,151.8308,208.275,0.00050986,7.845e-05,0.0,0 STARLINK-5037,1 53896U 22119L   24078.04883269  .00007845  00000-0  50986-3 0  9992,2 53896  53.2183 323.5305 0001202 151.8308 208.2750 15.08882522 82327,6917.75,95.435,540.447,538.784,0.0
53896.0,STARLINK-5037,PAYLOAD,2024-03-18 20:15:00,15.08840866,0.0001383,53.2182,319.9629,102.1445,257.9702,8.1329e-05,1.007e-05,0.0,0 STARLINK-5037,1 53896U 22119L   24078.84375175  .00001007  00000-0  81329-4 0  9992,2 53896  53.2182 319.9629 0001383 102.1445 257.9702 15.08840866 82441,6917.878,95.437,540.699,538.786,0.0
53896.0,STARLINK-5037,PAYLOAD,2024-03-18 21:50:23,15.08840385,0.0001299,53.2183,319.6661,108.6662,251.4472,8.7634e-05,1.107e-05,0.0,0 STARLINK-5037,1 53896U 22119L   24078.90999160  .00001107  00000-0  87634-4 0  9991,2 53896  53.2183 319.6661 0001299 108.6662 251.4472 15.08840385 82879,6917.879,95.438,540.643,538.846,0.0
53896.0,STARLINK-5037,PAYLOAD,2024-03-19 01:01:09,15.08842569,0.0001172,53.2174,319.071,78.5519,281.5605,6.6975e-05,7.78e-06,0.0,0 STARLINK-5037,1 53896U 22119L   24079.04246843  .00000778  00000-0  66975-4 0  9998,2 53896  53.2174 319.0710 0001172  78.5519 281.5605 15.08842569 82894,6917.873,95.437,540.548,538.927,0.0
53896.0,STARLINK-5037,PAYLOAD,2024-03-19 21:41:09,15.08855649,9.98e-05,53.2173,315.203,117.9889,242.1204,0.00024146,3.559e-05,0.0,0 STARLINK-5037,1 53896U 22119L   24079.90357829  .00003559  00000-0  24146-3 0  9993,2 53896  53.2173 315.2030 0000998 117.9889 242.1204 15.08855649 82609,6917.833,95.437,540.388,539.007,0.0
53896.0,STARLINK-5037,PAYLOAD,2024-03-19 23:16:32,15.08856053,9.56e-05,53.2173,314.906,103.1719,256.9379,0.00024975,3.691e-05,0.0,0 STARLINK-5037,1 53896U 22119L   24079.96981818  .00003691  00000-0  24975-3 0  9997,2 53896  53.2173 314.9060 0000956 103.1719 256.9379 15.08856053 83035,6917.831,95.437,540.358,539.035,0.0
53896.0,STARLINK-5037,PAYLOAD,2024-03-20 19:56:34,15.08836068,0.0001162,53.217,311.043,81.5662,278.5461,2.8371e-05,1.64e-06,0.0,0 STARLINK-5037,1 53896U 22119L   24080.83095362  .00000164  00000-0  28371-4 0  9992,2 53896  53.2170 311.0430 0001162  81.5662 278.5461 15.08836068 82740,6917.892,95.438,540.561,538.954,0.0
53896.0,STARLINK-5037,PAYLOAD,2024-03-20 21:31:57,15.0883629,0.0001339,53.2176,310.7459,79.806,280.3083,3.7375e-05,3.07e-06,0.0,0 STARLINK-5037,1 53896U 22119L   24080.89719452  .00000307  00000-0  37375-4 0  9994,2 53896  53.2176 310.7459 0001339  79.8060 280.3083 15.08836290 83177,6917.892,95.438,540.683,538.83,0.0
53896.0,STARLINK-5037,PAYLOAD,2024-03-21 00:42:43,15.08837533,0.0001243,53.2173,310.1501,89.1773,270.9362,6.5994e-05,7.63e-06,0.0,0 STARLINK-5037,1 53896U 22119L   24081.02967246  .00000763  00000-0  65994-4 0  9990,2 53896  53.2173 310.1501 0001243  89.1773 270.9362 15.08837533 83193,6917.888,95.438,540.613,538.893,0.0
53896.0,STARLINK-5037,PAYLOAD,2024-03-21 19:47:21,15.08848429,0.0001176,53.2172,306.5806,112.1015,248.0102,0.0002836,4.23e-05,0.0,0 STARLINK-5037,1 53896U 22119L   24081.82454890  .00004230  00000-0  28360-3 0  9992,2 53896  53.2172 306.5806 0001176 112.1015 248.0102 15.08848429 82890,6917.855,95.437,540.533,538.906,0.0
53896.0,STARLINK-5037,PAYLOAD,2024-03-21 21:22:44,15.08851964,0.0001167,53.2167,306.283,105.6021,254.51,0.00036104,5.465e-05,0.0,0 STARLINK-5037,1 53896U 22119L   24081.89078812  .00005465  00000-0  36104-3 0  9991,2 53896  53.2167 306.2830 0001167 105.6021 254.5100 15.08851964 83329,6917.844,95.437,540.516,538.902,0.0
